<?xml version="1.0" encoding="UTF-8"?>
<ndm xmlns:xsi="http://www.w3.org/2001/XMLSchema-instance" xsi:noNamespaceSchemaLocation="https://sanaregistry.org/r/ndmxml_unqualified/ndmxml-2.0.0-master-2.0.xsd">
<omm id="CCSDS_OMM_VERS" version="2.0">
<header><CREATION_DATE/><ORIGINATOR/></header><body><segment><metadata><OBJECT_NAME>ORBCOMM-X</OBJECT_NAME><OBJECT_ID>1991-050C</OBJECT_ID><CENTER_NAME>EARTH</CENTER_NAME><REF_FRAME>TEME</REF_FRAME><TIME_SYSTEM>UTC</TIME_SYSTEM><MEAN_ELEMENT_THEORY>SGP4</MEAN_ELEMENT_THEORY></metadata><data><meanElements><EPOCH>2025-07-30T21:57:13.628448</EPOCH><MEAN_MOTION>14.43289588</MEAN_MOTION><ECCENTRICITY>.0004659</ECCENTRICITY><INCLINATION>98.3409</INCLINATION><RA_OF_ASC_NODE>277.6189</RA_OF_ASC_NODE><ARG_OF_PERICENTER>64.8694</ARG_OF_PERICENTER><MEAN_ANOMALY>295.2979</MEAN_ANOMALY></meanElements><tleParameters><EPHEMERIS_TYPE>0</EPHEMERIS_TYPE><CLASSIFICATION_TYPE>U</CLASSIFICATION_TYPE><NORAD_CAT_ID>21576</NORAD_CAT_ID><ELEMENT_SET_NO>999</ELEMENT_SET_NO><REV_AT_EPOCH>78842</REV_AT_EPOCH><BSTAR>.10452E-3</BSTAR><MEAN_MOTION_DOT>.309E-5</MEAN_MOTION_DOT><MEAN_MOTION_DDOT>0</MEAN_MOTION_DDOT></tleParameters></data></segment></body></omm>
<omm id="CCSDS_OMM_VERS" version="2.0">
<header><CREATION_DATE/><ORIGINATOR/></header><body><segment><metadata><OBJECT_NAME>ORBCOMM FM01</OBJECT_NAME><OBJECT_ID>1995-017A</OBJECT_ID><CENTER_NAME>EARTH</CENTER_NAME><REF_FRAME>TEME</REF_FRAME><TIME_SYSTEM>UTC</TIME_SYSTEM><MEAN_ELEMENT_THEORY>SGP4</MEAN_ELEMENT_THEORY></metadata><data><meanElements><EPOCH>2025-07-30T16:40:03.493632</EPOCH><MEAN_MOTION>14.90472188</MEAN_MOTION><ECCENTRICITY>.0005651</ECCENTRICITY><INCLINATION>69.9649</INCLINATION><RA_OF_ASC_NODE>325.6136</RA_OF_ASC_NODE><ARG_OF_PERICENTER>258.5504</ARG_OF_PERICENTER><MEAN_ANOMALY>101.5016</MEAN_ANOMALY></meanElements><tleParameters><EPHEMERIS_TYPE>0</EPHEMERIS_TYPE><CLASSIFICATION_TYPE>U</CLASSIFICATION_TYPE><NORAD_CAT_ID>23545</NORAD_CAT_ID><ELEMENT_SET_NO>999</ELEMENT_SET_NO><REV_AT_EPOCH>61899</REV_AT_EPOCH><BSTAR>.68765E-3</BSTAR><MEAN_MOTION_DOT>.6642E-4</MEAN_MOTION_DOT><MEAN_MOTION_DDOT>0</MEAN_MOTION_DDOT></tleParameters></data></segment></body></omm>
<omm id="CCSDS_OMM_VERS" version="2.0">
<header><CREATION_DATE/><ORIGINATOR/></header><body><segment><metadata><OBJECT_NAME>ORBCOMM FM02</OBJECT_NAME><OBJECT_ID>1995-017B</OBJECT_ID><CENTER_NAME>EARTH</CENTER_NAME><REF_FRAME>TEME</REF_FRAME><TIME_SYSTEM>UTC</TIME_SYSTEM><MEAN_ELEMENT_THEORY>SGP4</MEAN_ELEMENT_THEORY></metadata><data><meanElements><EPOCH>2025-07-30T17:53:04.203456</EPOCH><MEAN_MOTION>14.91405488</MEAN_MOTION><ECCENTRICITY>.0006948</ECCENTRICITY><INCLINATION>69.9668</INCLINATION><RA_OF_ASC_NODE>344.7330</RA_OF_ASC_NODE><ARG_OF_PERICENTER>255.4998</ARG_OF_PERICENTER><MEAN_ANOMALY>104.5387</MEAN_ANOMALY></meanElements><tleParameters><EPHEMERIS_TYPE>0</EPHEMERIS_TYPE><CLASSIFICATION_TYPE>U</CLASSIFICATION_TYPE><NORAD_CAT_ID>23546</NORAD_CAT_ID><ELEMENT_SET_NO>999</ELEMENT_SET_NO><REV_AT_EPOCH>61865</REV_AT_EPOCH><BSTAR>.73212E-3</BSTAR><MEAN_MOTION_DOT>.7247E-4</MEAN_MOTION_DOT><MEAN_MOTION_DDOT>0</MEAN_MOTION_DDOT></tleParameters></data></segment></body></omm>
<omm id="CCSDS_OMM_VERS" version="2.0">
<header><CREATION_DATE/><ORIGINATOR/></header><body><segment><metadata><OBJECT_NAME>ORBCOMM FM08</OBJECT_NAME><OBJECT_ID>1997-084A</OBJECT_ID><CENTER_NAME>EARTH</CENTER_NAME><REF_FRAME>TEME</REF_FRAME><TIME_SYSTEM>UTC</TIME_SYSTEM><MEAN_ELEMENT_THEORY>SGP4</MEAN_ELEMENT_THEORY></metadata><data><meanElements><EPOCH>2025-07-30T13:44:33.656064</EPOCH><MEAN_MOTION>14.45913188</MEAN_MOTION><ECCENTRICITY>.0004639</ECCENTRICITY><INCLINATION>45.0131</INCLINATION><RA_OF_ASC_NODE>159.5791</RA_OF_ASC_NODE><ARG_OF_PERICENTER>93.2507</ARG_OF_PERICENTER><MEAN_ANOMALY>266.8876</MEAN_ANOMALY></meanElements><tleParameters><EPHEMERIS_TYPE>0</EPHEMERIS_TYPE><CLASSIFICATION_TYPE>U</CLASSIFICATION_TYPE><NORAD_CAT_ID>25112</NORAD_CAT_ID><ELEMENT_SET_NO>999</ELEMENT_SET_NO><REV_AT_EPOCH>44765</REV_AT_EPOCH><BSTAR>.49119E-3</BSTAR><MEAN_MOTION_DOT>.1619E-4</MEAN_MOTION_DOT><MEAN_MOTION_DDOT>0</MEAN_MOTION_DDOT></tleParameters></data></segment></body></omm>
<omm id="CCSDS_OMM_VERS" version="2.0">
<header><CREATION_DATE/><ORIGINATOR/></header><body><segment><metadata><OBJECT_NAME>ORBCOMM FM10</OBJECT_NAME><OBJECT_ID>1997-084B</OBJECT_ID><CENTER_NAME>EARTH</CENTER_NAME><REF_FRAME>TEME</REF_FRAME><TIME_SYSTEM>UTC</TIME_SYSTEM><MEAN_ELEMENT_THEORY>SGP4</MEAN_ELEMENT_THEORY></metadata><data><meanElements><EPOCH>2025-07-30T13:26:35.396160</EPOCH><MEAN_MOTION>14.45696233</MEAN_MOTION><ECCENTRICITY>.0004292</ECCENTRICITY><INCLINATION>45.0143</INCLINATION><RA_OF_ASC_NODE>162.0955</RA_OF_ASC_NODE><ARG_OF_PERICENTER>45.8428</ARG_OF_PERICENTER><MEAN_ANOMALY>314.2776</MEAN_ANOMALY></meanElements><tleParameters><EPHEMERIS_TYPE>0</EPHEMERIS_TYPE><CLASSIFICATION_TYPE>U</CLASSIFICATION_TYPE><NORAD_CAT_ID>25113</NORAD_CAT_ID><ELEMENT_SET_NO>999</ELEMENT_SET_NO><REV_AT_EPOCH>44780</REV_AT_EPOCH><BSTAR>.4714E-3</BSTAR><MEAN_MOTION_DOT>.154E-4</MEAN_MOTION_DOT><MEAN_MOTION_DDOT>0</MEAN_MOTION_DDOT></tleParameters></data></segment></body></omm>
<omm id="CCSDS_OMM_VERS" version="2.0">
<header><CREATION_DATE/><ORIGINATOR/></header><body><segment><metadata><OBJECT_NAME>ORBCOMM FM11</OBJECT_NAME><OBJECT_ID>1997-084C</OBJECT_ID><CENTER_NAME>EARTH</CENTER_NAME><REF_FRAME>TEME</REF_FRAME><TIME_SYSTEM>UTC</TIME_SYSTEM><MEAN_ELEMENT_THEORY>SGP4</MEAN_ELEMENT_THEORY></metadata><data><meanElements><EPOCH>2025-07-30T13:43:58.089504</EPOCH><MEAN_MOTION>14.45444214</MEAN_MOTION><ECCENTRICITY>.0004958</ECCENTRICITY><INCLINATION>45.0129</INCLINATION><RA_OF_ASC_NODE>162.7494</RA_OF_ASC_NODE><ARG_OF_PERICENTER>51.7169</ARG_OF_PERICENTER><MEAN_ANOMALY>308.4127</MEAN_ANOMALY></meanElements><tleParameters><EPHEMERIS_TYPE>0</EPHEMERIS_TYPE><CLASSIFICATION_TYPE>U</CLASSIFICATION_TYPE><NORAD_CAT_ID>25114</NORAD_CAT_ID><ELEMENT_SET_NO>999</ELEMENT_SET_NO><REV_AT_EPOCH>44778</REV_AT_EPOCH><BSTAR>.4399E-3</BSTAR><MEAN_MOTION_DOT>.1419E-4</MEAN_MOTION_DOT><MEAN_MOTION_DDOT>0</MEAN_MOTION_DDOT></tleParameters></data></segment></body></omm>
<omm id="CCSDS_OMM_VERS" version="2.0">
<header><CREATION_DATE/><ORIGINATOR/></header><body><segment><metadata><OBJECT_NAME>ORBCOMM FM12</OBJECT_NAME><OBJECT_ID>1997-084D</OBJECT_ID><CENTER_NAME>EARTH</CENTER_NAME><REF_FRAME>TEME</REF_FRAME><TIME_SYSTEM>UTC</TIME_SYSTEM><MEAN_ELEMENT_THEORY>SGP4</MEAN_ELEMENT_THEORY></metadata><data><meanElements><EPOCH>2025-07-30T14:28:33.238272</EPOCH><MEAN_MOTION>14.45467114</MEAN_MOTION><ECCENTRICITY>.0004216</ECCENTRICITY><INCLINATION>45.0135</INCLINATION><RA_OF_ASC_NODE>162.3462</RA_OF_ASC_NODE><ARG_OF_PERICENTER>43.6308</ARG_OF_PERICENTER><MEAN_ANOMALY>316.4876</MEAN_ANOMALY></meanElements><tleParameters><EPHEMERIS_TYPE>0</EPHEMERIS_TYPE><CLASSIFICATION_TYPE>U</CLASSIFICATION_TYPE><NORAD_CAT_ID>25115</NORAD_CAT_ID><ELEMENT_SET_NO>999</ELEMENT_SET_NO><REV_AT_EPOCH>44779</REV_AT_EPOCH><BSTAR>.43455E-3</BSTAR><MEAN_MOTION_DOT>.1401E-4</MEAN_MOTION_DOT><MEAN_MOTION_DDOT>0</MEAN_MOTION_DDOT></tleParameters></data></segment></body></omm>
<omm id="CCSDS_OMM_VERS" version="2.0">
<header><CREATION_DATE/><ORIGINATOR/></header><body><segment><metadata><OBJECT_NAME>ORBCOMM FM09</OBJECT_NAME><OBJECT_ID>1997-084E</OBJECT_ID><CENTER_NAME>EARTH</CENTER_NAME><REF_FRAME>TEME</REF_FRAME><TIME_SYSTEM>UTC</TIME_SYSTEM><MEAN_ELEMENT_THEORY>SGP4</MEAN_ELEMENT_THEORY></metadata><data><meanElements><EPOCH>2025-07-30T20:19:06.348864</EPOCH><MEAN_MOTION>14.45342473</MEAN_MOTION><ECCENTRICITY>.0005734</ECCENTRICITY><INCLINATION>45.0139</INCLINATION><RA_OF_ASC_NODE>162.1549</RA_OF_ASC_NODE><ARG_OF_PERICENTER>41.3193</ARG_OF_PERICENTER><MEAN_ANOMALY>318.8091</MEAN_ANOMALY></meanElements><tleParameters><EPHEMERIS_TYPE>0</EPHEMERIS_TYPE><CLASSIFICATION_TYPE>U</CLASSIFICATION_TYPE><NORAD_CAT_ID>25116</NORAD_CAT_ID><ELEMENT_SET_NO>999</ELEMENT_SET_NO><REV_AT_EPOCH>44782</REV_AT_EPOCH><BSTAR>.47248E-3</BSTAR><MEAN_MOTION_DOT>.1532E-4</MEAN_MOTION_DOT><MEAN_MOTION_DDOT>0</MEAN_MOTION_DDOT></tleParameters></data></segment></body></omm>

</ndm>
