ORBCOMM-X               
1 21576U 91050C   25211.91474107  .00000309  00000+0  10452-3 0  9996
2 21576  98.3409 277.6189 0004659  64.8694 295.2979 14.43289588788421
ORBCOMM FM01            
1 23545U 95017A   25211.69448488  .00006642  00000+0  68765-3 0  9995
2 23545  69.9649 325.6136 0005651 258.5504 101.5016 14.90472188618997
ORBCOMM FM02            
1 23546U 95017B   25211.74518754  .00007247  00000+0  73212-3 0  9991
2 23546  69.9668 344.7330 0006948 255.4998 104.5387 14.91405488618657
ORBCOMM FM08            
1 25112U 97084A   25211.57261176  .00001619  00000+0  49119-3 0  9998
2 25112  45.0131 159.5791 0004639  93.2507 266.8876 14.45913188447655
ORBCOMM FM10            
1 25113U 97084B   25211.56013190  .00001540  00000+0  47140-3 0  9994
2 25113  45.0143 162.0955 0004292  45.8428 314.2776 14.45696233447803
ORBCOMM FM11            
1 25114U 97084C   25211.57220011  .00001419  00000+0  43990-3 0  9992
2 25114  45.0129 162.7494 0004958  51.7169 308.4127 14.45444214447782
ORBCOMM FM12            
1 25115U 97084D   25211.60316248  .00001401  00000+0  43455-3 0  9992
2 25115  45.0135 162.3462 0004216  43.6308 316.4876 14.45467114447798
ORBCOMM FM09            
1 25116U 97084E   25211.84660126  .00001532  00000+0  47248-3 0  9995
2 25116  45.0139 162.1549 0005734  41.3193 318.8091 14.45342473447829
